GLOBALSTAR M024         
1 25883U 99043A   25257.27318351  .00000009  00000+0  26194-2 0  9994
2 25883  52.0001 179.6126 0000842 265.2530 266.1735 11.10166024124756
GLOBALSTAR M027         
1 25884U 99043B   25257.28878169 -.00000046  00000+0  65072-3 0  9995
2 25884  52.0184 260.0869 0021351 135.0135 225.2392 11.04372587151088
GLOBALSTAR M054         
1 25885U 99043C   25257.25981661 -.00000043  00000+0  71314-3 0  9998
2 25885  52.0181  12.4996 0004803 332.3484  36.9064 11.39220627129205
GLOBALSTAR M053         
1 25886U 99043D   25257.23927317 -.00000055  00000+0  39010-3 0  9995
2 25886  52.0013 324.5890 0003333 228.0807 165.2373 11.27666622129493
GLOBALSTAR M058         
1 25907U 99049A   25257.18928807 -.00000055  00000+0  40027-3 0  9994
2 25907  51.9918 231.5152 0002408  79.2471 280.8635 11.93202907552166
GLOBALSTAR M050         
1 25908U 99049B   25257.19306351 -.00000161  00000+0 -82256-3 0  9999
2 25908  51.9967 232.5314 0008826 209.0991 165.1697 12.07457009158944
GLOBALSTAR M033         
1 25909U 99049C   25256.97592047 -.00000126  00000+0 -32779-3 0  9990
2 25909  51.9898  98.8251 0014815  86.1891 274.0650 12.20298052546585
GLOBALSTAR M055         
1 25910U 99049D   25257.03681150 -.00000095  00000+0 -10849-4 0  9994
2 25910  52.0005 105.0765 0006625 323.2222  36.8175 12.29432104179218
